OBJECT_NAME,OBJECT_ID,EPOCH,MEAN_MOTION,ECCENTRICITY,INCLINATION,RA_OF_ASC_NODE,ARG_OF_PERICENTER,MEAN_ANOMALY,EPHEMERIS_TYPE,CLASSIFICATION_TYPE,NORAD_CAT_ID,ELEMENT_SET_NO,REV_AT_EPOCH,BSTAR,MEAN_MOTION_DOT,MEAN_MOTION_DDOT
LEMUR-2-ROUNDTRIPPER,2025-009DG,2026-07-01T22:20:49.228512,15.04030654,.00049224,97.7232,265.5906,96.0003,264.1784,0,U,62711,999,7984,.80218642E-3,.11044E-3,0
LEMUR-2-MYNAMEISJEFF,2025-009DH,2026-07-01T22:18:32.254272,15.04022982,.00037113,97.7278,265.9786,126.0212,234.1358,0,U,62712,999,7984,.77177498E-3,.10619E-3,0
LEMUR-2-LEIA-PHILIP,2025-052AN,2026-07-01T15:18:42.194304,14.97352711,.00042946,97.6813,74.3444,159.0686,201.0713,0,U,63246,999,7083,.15751546E-3,.1771E-4,0
LEMUR-2-LIA-MARTIN,2025-052AQ,2026-07-01T12:06:22.364064,14.97914677,.00045306,97.6865,74.7092,125.9899,234.1744,0,U,63248,999,7082,.4580812E-3,.5341E-4,0
LEMUR-2-DELOITTE-1,2025-052BB,2026-07-01T22:48:34.117632,14.97702827,.00025514,97.6900,75.4801,68.3684,291.7809,0,U,63259,999,7090,.34845636E-3,.4026E-4,0
LEMUR-2-EMERSONROSE,2025-052BD,2026-07-01T23:28:02.589600,14.99189422,.00024735,97.6869,76.0916,77.5700,282.5800,0,U,63261,999,7095,.43197108E-3,.5202E-4,0
LEMUR-2-MARACHE-FRAN,2025-052BE,2026-07-01T22:37:49.997856,15.00228216,.00043511,97.6895,76.4058,317.4728,42.6158,0,U,63262,999,7097,.44490036E-3,.5508E-4,0
LEMUR-2-THEFALCONER,2025-052BG,2026-07-01T12:16:10.372224,14.97479455,.00012073,97.6841,74.6510,24.1400,335.9878,0,U,63264,999,7083,.39536941E-3,.4549E-4,0
LEMUR-2-UNTITLED-SC,2025-061A,2026-07-01T21:33:08.612640,15.13571414,.00178099,97.5642,158.1535,209.4835,150.5393,0,U,63351,999,6981,.22715195E-3,.4022E-4,0
LEMUR-2-ESPERANZA,2025-061B,2026-07-01T20:58:56.307648,15.13664603,.00174274,97.5650,158.2268,208.7998,151.2273,0,U,63352,999,6981,.25499488E-3,.4535E-4,0
LEMUR-2-KREMPEL-BRO2,2025-061C,2026-07-01T21:31:40.308384,15.14101916,.00185534,97.5697,158.8016,201.0236,159.0235,0,U,63353,999,6983,.23026101E-3,.4141E-4,0
LEMUR-2-THERMORAPTOR,2025-061D,2026-07-01T21:04:43.472352,15.14186089,.00182872,97.5702,158.8614,200.0187,160.0330,0,U,63354,999,6983,.264549E-3,.4779E-4,0
LEMUR-2-NEUROSPICY,2025-061E,2026-07-01T21:57:28.018368,15.14302106,.00160687,97.5628,158.5127,202.6546,157.3979,0,U,63355,999,6984,.21796788E-3,.3935E-4,0
LEMUR-2-TILLINFINITY,2025-061F,2026-07-01T21:04:57.370656,15.14886422,.00176319,97.5615,158.7773,191.0449,169.0399,0,U,63356,999,6986,.25713593E-3,.4736E-4,0
LEMUR-2-KREMPEL-BRO1,2025-061G,2026-07-01T22:04:35.563584,15.14693147,.00182696,97.5617,158.7302,192.2149,167.8642,0,U,63357,999,6986,.21899448E-3,.4002E-4,0
LEMUR-2-LANGER2SPACE,2025-061H,2026-07-01T21:11:51.445248,15.14387374,.00159876,97.5620,158.5020,201.2018,158.8553,0,U,63358,999,6984,.25799421E-3,.4682E-4,0
LEMUR-2-BALTO,2025-052BH,2026-07-01T06:15:19.821312,15.00241630,.00062027,97.6926,75.7076,19.1188,341.0267,0,U,63395,999,7087,.56579395E-3,.7027E-4,0
LEMUR-2-KRISH,2025-135AK,2026-07-01T06:02:31.677792,14.96331612,.00012845,97.7754,297.0316,107.4554,252.6807,0,U,64561,999,5602,.55637377E-3,.6238E-4,0
LEMUR-2-HUBBLE-4,2025-135AP,2026-07-01T21:02:57.357600,14.93653781,.00014992,97.7707,296.6091,202.2052,157.9103,0,U,64565,999,5606,.18426627E-3,.189E-4,0
LEMUR-2-SEJONG-2,2025-135BL,2026-07-01T22:41:47.272128,14.96824663,.00026838,97.7718,297.8664,278.2446,81.8471,0,U,64586,999,5615,.52120975E-3,.5915E-4,0
LEMUR-2-HUBBLE-5,2025-135BT,2026-07-01T21:22:26.651136,14.94181013,.00041258,97.7732,297.2775,295.4890,64.5903,0,U,64840,999,5610,.13903185E-3,.1432E-4,0
LEMUR-2-KARENDARRELL,2025-135BU,2026-07-01T19:00:23.840640,15.00330438,.00110625,97.7696,298.9768,148.2879,211.9013,0,U,64841,999,5620,.80367509E-3,.10041E-3,0
LEMUR-2-LUCILLE-ROSE,2025-135BV,2026-07-01T13:34:01.346304,15.00332893,.00130507,97.7742,298.7827,231.9098,128.0949,0,U,65403,999,5079,.66715644E-3,.8327E-4,0
LEMUR-2-AFFIE-WAUWIE,2025-248C,2026-07-01T15:22:12.440064,15.27762233,.00081716,45.3938,36.6515,179.1920,180.8984,0,U,66295,999,3680,.95282251E-3,.26135E-3,0
LEMUR-2-DEANANDMAEVE,2025-276N,2026-07-01T22:20:40.229952,15.19914575,.00044468,97.4209,256.1630,316.4902,43.5982,0,U,66678,999,3265,.3716617E-3,.7922E-4,0
LEMUR-2-STAS-GORBUK,2025-276W,2026-07-01T03:48:43.297344,15.19526624,.0003749,97.4245,255.4571,319.6736,40.4220,0,U,66686,999,3253,.34563E-3,.7278E-4,0
LEMUR-2-TEODOR,2025-276DG,2026-07-01T21:59:57.589728,15.21211038,.00023706,97.4149,256.4574,102.0294,258.1208,0,U,66768,999,3268,.30555509E-3,.675E-4,0
LEMUR-2-LAILA,2025-276DQ,2026-07-01T03:57:30.460032,15.21426597,.0002806,97.4173,255.8467,115.4973,244.6553,0,U,66776,999,3257,.34189E-3,.761E-4,0
LEMUR-2-CELIJO-SB-PK,2025-276DW,2026-07-01T10:40:52.617216,15.00148612,.00078382,97.5219,252.7535,98.1084,262.1029,0,U,66781,999,2476,.69694119E-3,.8654E-4,0
