LEMUR-2-ROUNDTRIPPER    
1 62711U 25009DG  26182.93112533  .00011044  00000+0  80219-3 0  9991
2 62711  97.7232 265.5906 0004922  96.0003 264.1784 15.04030654 79845
LEMUR-2-MYNAMEISJEFF    
1 62712U 25009DH  26182.92953998  .00010619  00000+0  77177-3 0  9995
2 62712  97.7278 265.9786 0003711 126.0212 234.1358 15.04022982 79846
LEMUR-2-LEIA-PHILIP     
1 63246U 25052AN  26182.63798836  .00001771  00000+0  15752-3 0  9992
2 63246  97.6813  74.3444 0004294 159.0686 201.0713 14.97352711 70839
LEMUR-2-LIA-MARTIN      
1 63248U 25052AQ  26182.50442551  .00005341  00000+0  45808-3 0  9992
2 63248  97.6865  74.7092 0004530 125.9899 234.1744 14.97914677 70827
LEMUR-2-DELOITTE-1      
1 63259U 25052BB  26182.95039488  .00004026  00000+0  34846-3 0  9993
2 63259  97.6900  75.4801 0002551  68.3684 291.7809 14.97702827 70900
LEMUR-2-EMERSONROSE     
1 63261U 25052BD  26182.97780775  .00005202  00000+0  43197-3 0  9996
2 63261  97.6869  76.0916 0002473  77.5700 282.5800 14.99189422 70951
LEMUR-2-MARACHE-FRAN    
1 63262U 25052BE  26182.94293979  .00005508  00000+0  44490-3 0  9995
2 63262  97.6895  76.4058 0004351 317.4728  42.6158 15.00228216 70976
LEMUR-2-THEFALCONER     
1 63264U 25052BG  26182.51123116  .00004549  00000+0  39537-3 0  9995
2 63264  97.6841  74.6510 0001207  24.1400 335.9878 14.97479455 70838
LEMUR-2-UNTITLED-SC     
1 63351U 25061A   26182.89801635  .00004022  00000+0  22715-3 0  9998
2 63351  97.5642 158.1535 0017809 209.4835 150.5393 15.13571414 69819
LEMUR-2-ESPERANZA       
1 63352U 25061B   26182.87426282  .00004535  00000+0  25499-3 0  9999
2 63352  97.5650 158.2268 0017427 208.7998 151.2273 15.13664603 69819
LEMUR-2-KREMPEL-BRO2    
1 63353U 25061C   26182.89699431  .00004141  00000+0  23026-3 0  9997
2 63353  97.5697 158.8016 0018553 201.0236 159.0235 15.14101916 69830
LEMUR-2-THERMORAPTOR    
1 63354U 25061D   26182.87828093  .00004779  00000+0  26455-3 0  9990
2 63354  97.5702 158.8614 0018287 200.0187 160.0330 15.14186089 69832
LEMUR-2-NEUROSPICY      
1 63355U 25061E   26182.91490762  .00003935  00000+0  21797-3 0  9991
2 63355  97.5628 158.5127 0016068 202.6546 157.3979 15.14302106 69847
LEMUR-2-TILLINFINITY    
1 63356U 25061F   26182.87844179  .00004736  00000+0  25714-3 0  9995
2 63356  97.5615 158.7773 0017631 191.0449 169.0399 15.14886422 69869
LEMUR-2-KREMPEL-BRO1    
1 63357U 25061G   26182.91985606  .00004002  00000+0  21899-3 0  9998
2 63357  97.5617 158.7302 0018269 192.2149 167.8642 15.14693147 69865
LEMUR-2-LANGER2SPACE    
1 63358U 25061H   26182.88323432  .00004682  00000+0  25799-3 0  9995
2 63358  97.5620 158.5020 0015987 201.2018 158.8553 15.14387374 69846
LEMUR-2-BALTO           
1 63395U 25052BH  26182.26064608  .00007027  00000+0  56579-3 0  9991
2 63395  97.6926  75.7076 0006202  19.1188 341.0267 15.00241630 70874
LEMUR-2-KRISH           
1 64561U 25135AK  26182.25175553  .00006238  00000+0  55637-3 0  9997
2 64561  97.7754 297.0316 0001284 107.4554 252.6807 14.96331612 56021
LEMUR-2-HUBBLE-4        
1 64565U 25135AP  26182.87705275  .00001890  00000+0  18427-3 0  9994
2 64565  97.7707 296.6091 0001499 202.2052 157.9103 14.93653781 56064
LEMUR-2-SEJONG-2        
1 64586U 25135BL  26182.94568602  .00005915  00000+0  52121-3 0  9997
2 64586  97.7718 297.8664 0002683 278.2446  81.8471 14.96824663 56159
LEMUR-2-HUBBLE-5        
1 64840U 25135BT  26182.89058624  .00001432  00000+0  13903-3 0  9997
2 64840  97.7732 297.2775 0004125 295.4890  64.5903 14.94181013 56108
LEMUR-2-KARENDARRELL    
1 64841U 25135BU  26182.79194260  .00010041  00000+0  80368-3 0  9999
2 64841  97.7696 298.9768 0011062 148.2879 211.9013 15.00330438 56204
LEMUR-2-LUCILLE-ROSE    
1 65403U 25135BV  26182.56529336  .00008327  00000+0  66716-3 0  9990
2 65403  97.7742 298.7827 0013050 231.9098 128.0949 15.00332893 50798
LEMUR-2-AFFIE-WAUWIE    
1 66295U 25248C   26182.64042176  .00026135  00000+0  95282-3 0  9993
2 66295  45.3938  36.6515 0008171 179.1920 180.8984 15.27762233 36807
LEMUR-2-DEANANDMAEVE    
1 66678U 25276N   26182.93102118  .00007922  00000+0  37166-3 0  9994
2 66678  97.4209 256.1630 0004446 316.4902  43.5982 15.19914575 32656
LEMUR-2-STAS-GORBUK     
1 66686U 25276W   26182.15883446  .00007278  00000+0  34563-3 0  9999
2 66686  97.4245 255.4571 0003749 319.6736  40.4220 15.19526624 32538
LEMUR-2-TEODOR          
1 66768U 25276DG  26182.91663877  .00006750  00000+0  30556-3 0  9990
2 66768  97.4149 256.4574 0002370 102.0294 258.1208 15.21211038 32681
LEMUR-2-LAILA           
1 66776U 25276DQ  26182.16493588  .00007610  00000+0  34189-3 0  9998
2 66776  97.4173 255.8467 0002806 115.4973 244.6553 15.21426597 32576
LEMUR-2-CELIJO-SB-PK    
1 66781U 25276DW  26182.44505344  .00008654  00000+0  69694-3 0  9997
2 66781  97.5219 252.7535 0007838  98.1084 262.1029 15.00148612 24767
